IRIDIUM 103             
1 41918U 17003B   24138.46639825  .00000789  00000+0  27452-3 0  9991
2 41918  86.3995  46.3272 0002337  74.7692 285.3762 14.34220336384195
IRIDIUM 109             
1 41919U 17003C   24137.49598493 -.00000779  00000+0 -28513-3 0  9999
2 41919  86.3997  46.7791 0002518  82.2901 277.8581 14.34217000384027
IRIDIUM 102             
1 41920U 17003D   24138.44104063  .00000631  00000+0  21840-3 0  9994
2 41920  86.3997  46.3245 0002351  87.0303 273.1162 14.34219175384246
IRIDIUM 105             
1 41921U 17003E   24138.20248991  .00000226  00000+0  73788-4 0  9997
2 41921  86.4009  14.8633 0002232  82.0630 278.0819 14.34221352386064
IRIDIUM 104             
1 41922U 17003F   24137.19788537  .00000019  00000+0 -35525-6 0  9990
2 41922  86.3994  46.8747 0002495  82.7577 277.3902 14.34217094384056
IRIDIUM 114             
1 41923U 17003G   24138.46006134  .00000041  00000+0  77455-5 0  9999
2 41923  86.3996  46.3337 0002067  88.5727 271.5706 14.34216189384215
IRIDIUM 108             
1 41924U 17003H   24138.41858520  .00000024  00000+0  14345-5 0  9999
2 41924  86.3994  14.7000 0001861  88.3024 271.8385 14.34216521386060
